H1 CPF  1  DGF 2022 10 17 10  7901 larets     NONE      
H2   304206 5557    27944 2022 10 17 00 00 00 2022 10 24 00 00 00    30 1 1  0 0 0
H5  0.0650
H9
10 0 59875  64800.000000  0       3450071.557      -4059876.232       4630392.467
10 0 59875  64830.000000  0       3500572.887      -4203796.817       4461000.734
10 0 59875  64860.000000  0       3546904.753      -4343667.469       4287053.308
10 0 59875  64890.000000  0       3589037.574      -4479327.258       4108727.003
10 0 59875  64920.000000  0       3626946.719      -4610619.370       3926203.194
10 0 59875  64950.000000  0       3660612.521      -4737391.296       3739667.629
10 0 59875  64980.000000  0       3690020.280      -4859495.017       3549310.245
10 0 59875  65010.000000  0       3715160.266      -4976787.186       3355324.971
10 0 59875  65040.000000  0       3736027.709      -5089129.298       3157909.533
10 0 59875  65070.000000  0       3752622.792      -5196387.864       2957265.249
10 0 59875  65100.000000  0       3764950.631      -5298434.572       2753596.822
10 0 59875  65130.000000  0       3773021.246      -5395146.449       2547112.131
10 0 59875  65160.000000  0       3776849.538      -5486406.013       2338022.016
10 0 59875  65190.000000  0       3776455.251      -5572101.424       2126540.059
10 0 59875  65220.000000  0       3771862.929      -5652126.624       1912882.359
10 0 59875  65250.000000  0       3763101.870      -5726381.471       1697267.307
10 0 59875  65280.000000  0       3750206.071      -5794771.870       1479915.355
10 0 59875  65310.000000  0       3733214.166      -5857209.887       1261048.788
10 0 59875  65340.000000  0       3712169.365      -5913613.863       1040891.491
10 0 59875  65370.000000  0       3687119.384      -5963908.527        819668.717
10 0 59875  65400.000000  0       3658116.371      -6008025.094        597606.854
10 0 59875  65430.000000  0       3625216.828      -6045901.365        374933.183
10 0 59875  65460.000000  0       3588481.527      -6077481.815        151875.633
10 0 59875  65490.000000  0       3547975.416      -6102717.670        -71337.460
10 0 59875  65520.000000  0       3503767.522      -6121566.976       -294477.603
10 0 59875  65550.000000  0       3455930.849      -6133994.656       -517316.387
10 0 59875  65580.000000  0       3404542.264      -6139972.562       -739625.726
10 0 59875  65610.000000  0       3349682.394      -6139479.521       -961178.103
10 0 59875  65640.000000  0       3291435.502      -6132501.366      -1181746.800
10 0 59875  65670.000000  0       3229889.376      -6119030.969      -1401106.145
10 0 59875  65700.000000  0       3165135.206      -6099068.262      -1619031.743
10 0 59875  65730.000000  0       3097267.455      -6072620.251      -1835300.718
10 0 59875  65760.000000  0       3026383.729      -6039701.018      -2049691.952
10 0 59875  65790.000000  0       2952584.640      -6000331.714      -2261986.313
10 0 59875  65820.000000  0       2875973.673      -5954540.545      -2471966.890
10 0 59875  65850.000000  0       2796657.041      -5902362.751      -2679419.214
10 0 59875  65880.000000  0       2714743.548      -5843840.572      -2884131.494
10 0 59875  65910.000000  0       2630344.435      -5779023.213      -3085894.830
10 0 59875  65940.000000  0       2543573.234      -5707966.794      -3284503.431
10 0 59875  65970.000000  0       2454545.615      -5630734.292      -3479754.830
10 0 59875  66000.000000  0       2363379.232      -5547395.480      -3671450.089
10 0 59875  66030.000000  0       2270193.574      -5458026.851      -3859394.001
10 0 59875  66060.000000  0       2175109.802      -5362711.541      -4043395.289
10 0 59875  66090.000000  0       2078250.599      -5261539.243      -4223266.800
10 0 59875  66120.000000  0       1979740.011      -5154606.112      -4398825.690
10 0 59875  66150.000000  0       1879703.290      -5042014.666      -4569893.610
10 0 59875  66180.000000  0       1778266.739      -4923873.678      -4736296.884
10 0 59875  66210.000000  0       1675557.552      -4800298.062      -4897866.679
10 0 59875  66240.000000  0       1571703.655      -4671408.754      -5054439.175
10 0 59875  66270.000000  0       1466833.552      -4537332.585      -5205855.728
10 0 59875  66300.000000  0       1361076.163      -4398202.147      -5351963.020
10 0 59875  66330.000000  0       1254560.669      -4254155.650      -5492613.214
10 0 59875  66360.000000  0       1147416.357      -4105336.783      -5627664.095
10 0 59875  66390.000000  0       1039772.458      -3951894.557      -5756979.207
10 0 59875  66420.000000  0        931758.000      -3793983.153      -5880427.982
10 0 59875  66450.000000  0        823501.650      -3631761.758      -5997885.867
10 0 59875  66480.000000  0        715131.564      -3465394.399      -6109234.438
10 0 59875  66510.000000  0        606775.234      -3295049.773      -6214361.516
10 0 59875  66540.000000  0        498559.347      -3120901.069      -6313161.269
10 0 59875  66570.000000  0        390609.629      -2943125.788      -6405534.313
10 0 59875  66600.000000  0        283050.711      -2761905.560      -6491387.801
10 0 59875  66630.000000  0        176005.982      -2577425.948      -6570635.514
10 0 59875  66660.000000  0         69597.448      -2389876.264      -6643197.932
10 0 59875  66690.000000  0        -36054.398      -2199449.367      -6709002.314
10 0 59875  66720.000000  0       -140830.716      -2006341.464      -6767982.757
10 0 59875  66750.000000  0       -244614.444      -1810751.911      -6820080.260
10 0 59875  66780.000000  0       -347290.432      -1612883.002      -6865242.778
10 0 59875  66810.000000  0       -448745.559      -1412939.762      -6903425.267
10 0 59875  66840.000000  0       -548868.864      -1211129.732      -6934589.721
10 0 59875  66870.000000  0       -647551.657      -1007662.758      -6958705.209
10 0 59875  66900.000000  0       -744687.640       -802750.771      -6975747.902
10 0 59875  66930.000000  0       -840173.018       -596607.569      -6985701.085
10 0 59875  66960.000000  0       -933906.607       -389448.596      -6988555.175
10 0 59875  66990.000000  0      -1025789.945       -181490.720      -6984307.726
10 0 59875  67020.000000  0      -1115727.385         27047.985      -6972963.427
10 0 59875  67050.000000  0      -1203626.200        235948.470      -6954534.096
10 0 59875  67080.000000  0      -1289396.675        444990.934      -6929038.676
10 0 59875  67110.000000  0      -1372952.196        653955.055      -6896503.210
10 0 59875  67140.000000  0      -1454209.336        862620.222      -6856960.816
10 0 59875  67170.000000  0      -1533087.939       1070765.764      -6810451.654
10 0 59875  67200.000000  0      -1609511.194       1278171.177      -6757022.884
10 0 59875  67230.000000  0      -1683405.709       1484616.356      -6696728.624
10 0 59875  67260.000000  0      -1754701.583       1689881.816      -6629629.900
10 0 59875  67290.000000  0      -1823332.472       1893748.933      -6555794.595
10 0 59875  67320.000000  0      -1889235.649       2096000.172      -6475297.384
10 0 59875  67350.000000  0      -1952352.066       2296419.320      -6388219.665
10 0 59875  67380.000000  0      -2012626.405       2494791.719      -6294649.480
10 0 59875  67410.000000  0      -2070007.127       2690904.496      -6194681.428
10 0 59875  67440.000000  0      -2124446.511       2884546.785      -6088416.580
10 0 59875  67470.000000  0      -2175900.698       3075509.958      -5975962.377
10 0 59875  67500.000000  0      -2224329.721       3263587.849      -5857432.540
10 0 59875  67530.000000  0      -2269697.539       3448576.976      -5732946.953
10 0 59875  67560.000000  0      -2311972.060       3630276.772      -5602631.556
10 0 59875  67590.000000  0      -2351125.170       3808489.797      -5466618.219
10 0 59875  67620.000000  0      -2387132.740       3983021.962      -5325044.618
10 0 59875  67650.000000  0      -2419974.643       4153682.743      -5178054.098
10 0 59875  67680.000000  0      -2449634.761       4320285.393      -5025795.534
10 0 59875  67710.000000  0      -2476100.984       4482647.153      -4868423.188
10 0 59875  67740.000000  0      -2499365.210       4640589.452      -4706096.553
10 0 59875  67770.000000  0      -2519423.334       4793938.114      -4538980.196
10 0 59875  67800.000000  0      -2536275.235       4942523.551      -4367243.596
10 0 59875  67830.000000  0      -2549924.761       5086180.958      -4191060.975
10 0 59875  67860.000000  0      -2560379.703       5224750.495      -4010611.124
10 0 59875  67890.000000  0      -2567651.768       5358077.471      -3826077.228
10 0 59875  67920.000000  0      -2571756.548       5486012.525      -3637646.685
10 0 59875  67950.000000  0      -2572713.481       5608411.799      -3445510.921
10 0 59875  67980.000000  0      -2570545.811       5725137.111      -3249865.197
10 0 59875  68010.000000  0      -2565280.542       5836056.114      -3050908.412
10 0 59875  68040.000000  0      -2556948.387       5941042.457      -2848842.900
10 0 59875  68070.000000  0      -2545583.714       6039975.937      -2643874.226
10 0 59875  68100.000000  0      -2531224.488       6132742.644      -2436210.975
10 0 59875  68130.000000  0      -2513912.201       6219235.094      -2226064.530
10 0 59875  68160.000000  0      -2493691.805       6299352.361      -2013648.859
10 0 59875  68190.000000  0      -2470611.642       6373000.193      -1799180.294
10 0 59875  68220.000000  0      -2444723.362       6440091.130      -1582877.313
10 0 59875  68250.000000  0      -2416081.847       6500544.612      -1364960.310
10 0 59875  68280.000000  0      -2384745.124       6554287.077      -1145651.375
10 0 59875  68310.000000  0      -2350774.278       6601252.059       -925174.060
10 0 59875  68340.000000  0      -2314233.357       6641380.269       -703753.153
10 0 59875  68370.000000  0      -2275189.280       6674619.686       -481614.445
99
